{
  "norad_id": 65129,
  "name": "GEESAT-4 11",
  "history": [
    {
      "epoch": "2026-04-10T11:55:25.917600Z",
      "apogee_km": 621.8265220009534,
      "perigee_km": 611.924382373637,
      "latitude_deg": 5.720320630680028e-06,
      "longitude_deg": 110.07308792619843,
      "height_km": 622.1448012934186,
      "semi_major_axis_km": 6995.012452187295,
      "eccentricity": 0.0007078,
      "inclination_deg": 49.9832,
      "raan_deg": 127.6609,
      "arg_perigee_deg": 197.3745,
      "mean_anomaly_deg": 162.6952,
      "mean_motion_rev_day": 14.83952583
    },
    {
      "epoch": "2026-04-11T20:14:47.752800Z",
      "apogee_km": 621.8272078586815,
      "perigee_km": 611.9054951049402,
      "latitude_deg": 3.394892486354438e-06,
      "longitude_deg": -22.34164396335347,
      "height_km": 621.9914586612796,
      "semi_major_axis_km": 6995.003351481811,
      "eccentricity": 0.0007092,
      "inclination_deg": 49.9832,
      "raan_deg": 121.4146,
      "arg_perigee_deg": 202.5846,
      "mean_anomaly_deg": 157.4781,
      "mean_motion_rev_day": 14.83955479
    },
    {
      "epoch": "2026-04-13T06:11:07.424448Z",
      "apogee_km": 621.8180325939738,
      "perigee_km": 611.8926980269871,
      "latitude_deg": -3.317486213063642e-05,
      "longitude_deg": -179.37615719574163,
      "height_km": 621.7826240596203,
      "semi_major_axis_km": 6994.992365310481,
      "eccentricity": 0.00070946,
      "inclination_deg": 49.9832,
      "raan_deg": 114.8559,
      "arg_perigee_deg": 207.9914,
      "mean_anomaly_deg": 152.0643,
      "mean_motion_rev_day": 14.83958975
    },
    {
      "epoch": "2026-04-14T19:21:22.915872Z",
      "apogee_km": 621.795950397217,
      "perigee_km": 611.8924560097203,
      "latitude_deg": -1.3573402962038525e-05,
      "longitude_deg": -25.650444260969252,
      "height_km": 621.4944408418226,
      "semi_major_axis_km": 6994.981203203468,
      "eccentricity": 0.0007079,
      "inclination_deg": 49.9834,
      "raan_deg": 107.6727,
      "arg_perigee_deg": 214.0107,
      "mean_anomaly_deg": 146.0378,
      "mean_motion_rev_day": 14.83962527
    },
    {
      "epoch": "2026-04-15T19:35:53.724192Z",
      "apogee_km": 621.7890680250075,
      "perigee_km": 611.884185369604,
      "latitude_deg": 1.4913054105778637e-05,
      "longitude_deg": -34.95916564222014,
      "height_km": 621.291830383656,
      "semi_major_axis_km": 6994.973626697306,
      "eccentricity": 0.000708,
      "inclination_deg": 49.9835,
      "raan_deg": 102.9879,
      "arg_perigee_deg": 217.8717,
      "mean_anomaly_deg": 142.1724,
      "mean_motion_rev_day": 14.83964938
    },
    {
      "epoch": "2026-04-16T19:50:25.322208Z",
      "apogee_km": 621.9854418783207,
      "perigee_km": 611.8719758764264,
      "latitude_deg": 3.886655662959142e-05,
      "longitude_deg": -44.270990214127096,
      "height_km": 621.2160469729112,
      "semi_major_axis_km": 6995.065708877373,
      "eccentricity": 0.0007229,
      "inclination_deg": 49.9835,
      "raan_deg": 98.3033,
      "arg_perigee_deg": 222.2806,
      "mean_anomaly_deg": 137.7576,
      "mean_motion_rev_day": 14.83935636
    },
    {
      "epoch": "2026-04-17T21:41:57.079968Z",
      "apogee_km": 622.1070313591626,
      "perigee_km": 611.9384474523786,
      "latitude_deg": -1.154849172367658e-05,
      "longitude_deg": -78.21183900540474,
      "height_km": 621.091600625987,
      "semi_major_axis_km": 6995.15973940577,
      "eccentricity": 0.00072683,
      "inclination_deg": 49.9834,
      "raan_deg": 93.3068,
      "arg_perigee_deg": 226.1442,
      "mean_anomaly_deg": 133.8896,
      "mean_motion_rev_day": 14.83905715
    },
    {
      "epoch": "2026-04-18T20:19:34.060800Z",
      "apogee_km": 622.26949167987,
      "perigee_km": 611.9752679765152,
      "latitude_deg": 2.9394138572842678e-05,
      "longitude_deg": -62.91764688313267,
      "height_km": 621.0821986713312,
      "semi_major_axis_km": 6995.259379828192,
      "eccentricity": 0.0007358,
      "inclination_deg": 49.9836,
      "raan_deg": 88.9343,
      "arg_perigee_deg": 228.4571,
      "mean_anomaly_deg": 131.5737,
      "mean_motion_rev_day": 14.8387401
    },
    {
      "epoch": "2026-04-19T20:34:10.079040Z",
      "apogee_km": 622.2640234255196,
      "perigee_km": 611.9586235953248,
      "latitude_deg": -7.174056579010629e-06,
      "longitude_deg": -72.247693027283,
      "height_km": 620.8191259865148,
      "semi_major_axis_km": 6995.248323510422,
      "eccentricity": 0.0007366,
      "inclination_deg": 49.9838,
      "raan_deg": 84.25,
      "arg_perigee_deg": 232.1553,
      "mean_anomaly_deg": 127.8719,
      "mean_motion_rev_day": 14.83877528
    },
    {
      "epoch": "2026-04-20T14:20:52.416096Z",
      "apogee_km": 622.2573060283512,
      "perigee_km": 611.9547121245832,
      "latitude_deg": -3.4214019629254956e-05,
      "longitude_deg": 16.910444441091883,
      "height_km": 620.6079668826113,
      "semi_major_axis_km": 6995.2430090764665,
      "eccentricity": 0.0007364,
      "inclination_deg": 49.984,
      "raan_deg": 80.8147,
      "arg_perigee_deg": 234.9906,
      "mean_anomaly_deg": 125.0341,
      "mean_motion_rev_day": 14.83879219
    },
    {
      "epoch": "2026-04-21T21:03:22.990752Z",
      "apogee_km": 622.4007800512045,
      "perigee_km": 611.9917241720623,
      "latitude_deg": -1.670153285896977e-05,
      "longitude_deg": -90.91189151495253,
      "height_km": 620.4482885356375,
      "semi_major_axis_km": 6995.333252111633,
      "eccentricity": 0.000744,
      "inclination_deg": 49.9841,
      "raan_deg": 74.8809,
      "arg_perigee_deg": 238.681,
      "mean_anomaly_deg": 121.34,
      "mean_motion_rev_day": 14.83850505
    }
  ]
}